CS1                     
1 49261U 21088B   26068.75173904  .00015722  00000+0  51176-3 0  9998
2 49261  97.3882 132.1684 0014129  78.0335 282.2490 15.31848439245182
STARLINK-32080          
1 59683U 24086B   26068.40814716  .00001583  00000+0  67046-4 0  9997
2 59683  43.0020  65.3845 0000768 267.2778  92.7986 15.27565794104033
